CTC2_L_00313016-03
1 10062U 25079SY  26075.70043981  .00000000  00000+0  00000-0 0  9993
2 10062  40.0000 180.0000 0000000   0.0000   0.0000 13.69880518    14
CTC2_L_00313016-04
1 10063U 26757SR  26075.70043981  .00000000  00000+0  00000-0 0  9998
2 10063  40.0000 180.0000 0000000   0.0000  90.0000 13.69880518    14
CTC2_L_00313017-01
1 10064U 26318YO  26075.70043981  .00000000  00000+0  00000-0 0  9992
2 10064  40.0000 192.0000 0000000   0.0000 192.0000 13.69880518    11
CTC2_L_00313017-02
1 10065U 22778NW  26075.70043981  .00000000  00000+0  00000-0 0  9999
2 10065  40.0000 192.0000 0000000   0.0000 282.0000 13.69880518    12
CTC2_L_00313017-03
1 10066U 22661FU  26075.70043981  .00000000  00000+0  00000-0 0  9991
2 10066  40.0000 192.0000 0000000   0.0000  12.0000 13.69880518    14
CTC2_L_00313017-04
1 10067U 26181ZQ  26075.70043981  .00000000  00000+0  00000-0 0  9993
2 10067  40.0000 192.0000 0000000   0.0000 102.0000 13.69880518    15
CTC2_L_00313018-01
1 10068U 26812KN  26075.70043981  .00000000  00000+0  00000-0 0  9995
2 10068  40.0000 204.0000 0000000   0.0000 204.0000 13.69880518    13
CTC2_L_00313018-02
1 10069U 22022RY  26075.70043981  .00000000  00000+0  00000-0 0  9995
2 10069  40.0000 204.0000 0000000   0.0000 294.0000 13.69880518    13
CTC2_L_00313018-03
1 10070U 23083BO  26075.70043981  .00000000  00000+0  00000-0 0  9995
2 10070  40.0000 204.0000 0000000   0.0000  24.0000 13.69880518    16
CTC2_L_00313018-04
1 10071U 26656MC  26075.70043981  .00000000  00000+0  00000-0 0  9995
2 10071  40.0000 204.0000 0000000   0.0000 114.0000 13.69880518    17
CTC2_L_00313019-01
1 10072U 23305GN  26075.70043981  .00000000  00000+0  00000-0 0  9994
2 10072  40.0000 216.0000 0000000   0.0000 216.0000 13.69880518    14
CTC2_L_00313019-02
1 10073U 23445QA  26075.70043981  .00000000  00000+0  00000-0 0  9990
2 10073  40.0000 216.0000 0000000   0.0000 306.0000 13.69880518    15
CTC2_L_00313019-03
1 10074U 22631RN  26075.70043981  .00000000  00000+0  00000-0 0  9997
2 10074  40.0000 216.0000 0000000   0.0000  36.0000 13.69880518    16
CTC2_L_00313019-04
1 10075U 23628EH  26075.70043981  .00000000  00000+0  00000-0 0  9995
2 10075  40.0000 216.0000 0000000   0.0000 126.0000 13.69880518    17
CTC2_L_00313020-01
1 10076U 24417WH  26075.70043981  .00000000  00000+0  00000-0 0  9993
2 10076  40.0000 228.0000 0000000   0.0000 228.0000 13.69880518    14
CTC2_L_00313020-02
1 10077U 26325IM  26075.70043981  .00000000  00000+0  00000-0 0  9994
2 10077  40.0000 228.0000 0000000   0.0000 318.0000 13.69880518    15
CTC2_L_00313020-03
1 10078U 23225SG  26075.70043981  .00000000  00000+0  00000-0 0  9991
2 10078  40.0000 228.0000 0000000   0.0000  48.0000 13.69880518    16
CTC2_L_00313020-04
1 10079U 22877ZS  26075.70043981  .00000000  00000+0  00000-0 0  9994
2 10079  40.0000 228.0000 0000000   0.0000 138.0000 13.69880518    17
CTC2_L_00313021-01
1 10080U 23049OD  26075.70043981  .00000000  00000+0  00000-0 0  9998
2 10080  40.0000 240.0000 0000000   0.0000 240.0000 13.69880518    17
CTC2_L_00313021-02
1 10081U 26180XZ  26075.70043981  .00000000  00000+0  00000-0 0  9998
2 10081  40.0000 240.0000 0000000   0.0000 330.0000 13.69880518    18
CTC2_L_00313021-03
1 10082U 22980VF  26075.70043981  .00000000  00000+0  00000-0 0  9993
2 10082  40.0000 240.0000 0000000   0.0000  60.0000 13.69880518    19
CTC2_L_00313021-04
1 10083U 22427SS  26075.70043981  .00000000  00000+0  00000-0 0  9990
2 10083  40.0000 240.0000 0000000   0.0000 150.0000 13.69880518    10
CTC2_L_00313022-01
1 10084U 23393IE  26075.70043981  .00000000  00000+0  00000-0 0  9994
2 10084  40.0000 252.0000 0000000   0.0000 252.0000 13.69880518    17
CTC2_L_00313022-02
1 10085U 26768JF  26075.70043981  .00000000  00000+0  00000-0 0  9994
2 10085  40.0000 252.0000 0000000   0.0000 342.0000 13.69880518    18
CTC2_L_00313022-03
1 10086U 24092TB  26075.70043981  .00000000  00000+0  00000-0 0  9993
2 10086  40.0000 252.0000 0000000   0.0000  72.0000 13.69880518    19
CTC2_L_00313022-04
1 10087U 23890SM  26075.70043981  .00000000  00000+0  00000-0 0  9999
2 10087  40.0000 252.0000 0000000   0.0000 162.0000 13.69880518    10
CTC2_L_00313023-01
1 10088U 23181YF  26075.70043981  .00000000  00000+0  00000-0 0  9993
2 10088  40.0000 264.0000 0000000   0.0000 264.0000 13.69880518    17
CTC2_L_00313023-02
1 10089U 23279YH  26075.70043981  .00000000  00000+0  00000-0 0  9992
2 10089  40.0000 264.0000 0000000   0.0000 354.0000 13.69880518    18
CTC2_L_00313023-03
1 10090U 22327RO  26075.70043981  .00000000  00000+0  00000-0 0  9997
2 10090  40.0000 264.0000 0000000   0.0000  84.0000 13.69880518    10
CTC2_L_00313023-04
1 10091U 25309SD  26075.70043981  .00000000  00000+0  00000-0 0  9991
2 10091  40.0000 264.0000 0000000   0.0000 174.0000 13.69880518    11
CTC2_L_00313024-01
1 10092U 22503JC  26075.70043981  .00000000  00000+0  00000-0 0  9995
2 10092  40.0000 276.0000 0000000   0.0000 276.0000 13.69880518    18
CTC2_L_00313024-02
1 10093U 26271BV  26075.70043981  .00000000  00000+0  00000-0 0  9992
2 10093  40.0000 276.0000 0000000   0.0000   6.0000 13.69880518    10
CTC2_L_00313024-03
1 10094U 25320AQ  26075.70043981  .00000000  00000+0  00000-0 0  9997
2 10094  40.0000 276.0000 0000000   0.0000  96.0000 13.69880518    10
CTC2_L_00313024-04
1 10095U 22329JA  26075.70043981  .00000000  00000+0  00000-0 0  9994
2 10095  40.0000 276.0000 0000000   0.0000 186.0000 13.69880518    11
CTC2_L_00313025-01
1 10096U 24738OQ  26075.70043981  .00000000  00000+0  00000-0 0  9991
2 10096  40.0000 288.0000 0000000   0.0000 288.0000 13.69880518    18
CTC2_L_00313025-02
1 10097U 22560YD  26075.70043981  .00000000  00000+0  00000-0 0  9993
2 10097  40.0000 288.0000 0000000   0.0000  18.0000 13.69880518    10
CTC2_L_00313025-03
1 10098U 22450UJ  26075.70043981  .00000000  00000+0  00000-0 0  9992
2 10098  40.0000 288.0000 0000000   0.0000 108.0000 13.69880518    11
CTC2_L_00313025-04
1 10099U 24067WK  26075.70043981  .00000000  00000+0  00000-0 0  9999
2 10099  40.0000 288.0000 0000000   0.0000 198.0000 13.69880518    11
CTC2_L_00313026-01
1 10100U 24415OW  26075.70043981  .00000000  00000+0  00000-0 0  9999
2 10100  40.0000 300.0000 0000000   0.0000 300.0000 13.69880518    14
CTC2_L_00313026-02
1 10101U 26683CG  26075.70043981  .00000000  00000+0  00000-0 0  9999
2 10101  40.0000 300.0000 0000000   0.0000  30.0000 13.69880518    15
CTC2_L_00313026-03
1 10102U 22889PR  26075.70043981  .00000000  00000+0  00000-0 0  9994
2 10102  40.0000 300.0000 0000000   0.0000 120.0000 13.69880518    16
CTC2_L_00313026-04
1 10103U 25083FM  26075.70043981  .00000000  00000+0  00000-0 0  9994
2 10103  40.0000 300.0000 0000000   0.0000 210.0000 13.69880518    17
CTC2_L_00313027-01
1 10104U 24431GZ  26075.70043981  .00000000  00000+0  00000-0 0  9991
2 10104  40.0000 312.0000 0000000   0.0000 312.0000 13.69880518    14
CTC2_L_00313027-02
1 10105U 23684MI  26075.70043981  .00000000  00000+0  00000-0 0  9991
2 10105  40.0000 312.0000 0000000   0.0000  42.0000 13.69880518    15
CTC2_L_00313027-03
1 10106U 25927P   26075.70043981  .00000000  00000+0  00000-0 0  9994
2 10106  40.0000 312.0000 0000000   0.0000 132.0000 13.69880518    16
CTC2_L_00313027-04
1 10107U 23282FO  26075.70043981  .00000000  00000+0  00000-0 0  9997
2 10107  40.0000 312.0000 0000000   0.0000 222.0000 13.69880518    17
CTC2_L_00313028-01
1 10108U 23788SO  26075.70043981  .00000000  00000+0  00000-0 0  9999
2 10108  40.0000 324.0000 0000000   0.0000 324.0000 13.69880518    14
CTC2_L_00313028-02
1 10109U 23929KE  26075.70043981  .00000000  00000+0  00000-0 0  9997
2 10109  40.0000 324.0000 0000000   0.0000  54.0000 13.69880518    15
CTC2_L_00313028-03
1 10110U 24006FH  26075.70043981  .00000000  00000+0  00000-0 0  9996
2 10110  40.0000 324.0000 0000000   0.0000 144.0000 13.69880518    17
CTC2_L_00313028-04
1 10111U 26074CG  26075.70043981  .00000000  00000+0  00000-0 0  9994
2 10111  40.0000 324.0000 0000000   0.0000 234.0000 13.69880518    18
CTC2_L_00313029-01
1 10112U 22171TJ  26075.70043981  .00000000  00000+0  00000-0 0  9999
2 10112  40.0000 336.0000 0000000   0.0000 336.0000 13.69880518    15
CTC2_L_00313029-02
1 10113U 23543FA  26075.70043981  .00000000  00000+0  00000-0 0  9994
2 10113  40.0000 336.0000 0000000   0.0000  66.0000 13.69880518    16
CTC2_L_00313029-03
1 10114U 25893SG  26075.70043981  .00000000  00000+0  00000-0 0  9995
2 10114  40.0000 336.0000 0000000   0.0000 156.0000 13.69880518    17
CTC2_L_00313029-04
1 10115U 26209ZO  26075.70043981  .00000000  00000+0  00000-0 0  9998
2 10115  40.0000 336.0000 0000000   0.0000 246.0000 13.69880518    18
CTC2_L_00313030-01
1 10116U 23341ES  26075.70043981  .00000000  00000+0  00000-0 0  9993
2 10116  40.0000 348.0000 0000000   0.0000 348.0000 13.69880518    15
CTC2_L_00313030-02
1 10117U 22840QN  26075.70043981  .00000000  00000+0  00000-0 0  9997
2 10117  40.0000 348.0000 0000000   0.0000  78.0000 13.69880518    16
CTC2_L_00313030-03
1 10118U 24624G   26075.70043981  .00000000  00000+0  00000-0 0  9990
2 10118  40.0000 348.0000 0000000   0.0000 168.0000 13.69880518    17
CTC2_L_00313030-04
1 10119U 22978TL  26075.70043981  .00000000  00000+0  00000-0 0  9991
2 10119  40.0000 348.0000 0000000   0.0000 258.0000 13.69880518    18
